NORAD_CAT_ID,OBJECT_NAME,OBJECT_TYPE,EPOCH,MEAN_MOTION,ECCENTRICITY,INCLINATION,RA_OF_ASC_NODE,ARG_OF_PERICENTER,MEAN_ANOMALY,BSTAR,MEAN_MOTION_DOT,MEAN_MOTION_DDOT,TLE_LINE0,TLE_LINE1,TLE_LINE2,SEMIMAJOR_AXIS,PERIOD,APOGEE,PERIGEE,DECAYED
52272.0,STARLINK-3781,PAYLOAD,2023-11-28 18:35:07,15.08844628,0.0001744,53.2174,243.7693,117.7304,242.3865,0.00036691,5.557e-05,0.0,0 STARLINK-3781,1 52272U 22041M   23332.77439346  .00005557  00000-0  36691-3 0  9993,2 52272  53.2174 243.7693 0001744 117.7304 242.3865 15.08844628 90000,6917.866,95.437,540.938,538.525,0.0
52272.0,STARLINK-3781,PAYLOAD,2023-11-28 21:45:53,15.08846151,0.0001702,53.2175,243.1745,118.2053,241.9111,0.00033038,4.975e-05,0.0,0 STARLINK-3781,1 52272U 22041M   23332.90687214  .00004975  00000-0  33038-3 0  9992,2 52272  53.2175 243.1745 0001702 118.2053 241.9111 15.08846151 88799,6917.862,95.437,540.904,538.549,0.0
52272.0,STARLINK-3781,PAYLOAD,2023-11-28 23:21:16,15.08847157,0.0001669,53.2171,242.8771,115.6695,244.447,0.00032404,4.874e-05,0.0,0 STARLINK-3781,1 52272U 22041M   23332.97311155  .00004874  00000-0  32404-3 0  9991,2 52272  53.2171 242.8771 0001669 115.6695 244.4470 15.08847157 88800,6917.859,95.437,540.878,538.569,0.0
52272.0,STARLINK-3781,PAYLOAD,2023-11-30 00:47:26,15.08844694,0.0001628,53.2171,238.1253,108.0727,252.0442,-0.00012546,-2.284e-05,0.0,0 STARLINK-3781,1 52272U 22041M   23334.03295045 -.00002284  00000-0 -12546-3 0  9999,2 52272  53.2171 238.1253 0001628 108.0727 252.0442 15.08844694 90192,6917.866,95.437,540.857,538.605,0.0
52272.0,STARLINK-3781,PAYLOAD,2023-12-01 02:13:37,15.08839245,0.0001699,53.2185,233.3622,115.2284,244.8884,4.4365e-05,4.18e-06,0.0,0 STARLINK-3781,1 52272U 22041M   23335.09279642  .00000418  00000-0  44365-4 0  9991,2 52272  53.2185 233.3622 0001699 115.2284 244.8884 15.08839245 90353,6917.883,95.438,540.923,538.572,0.0
52272.0,STARLINK-3781,PAYLOAD,2023-12-01 22:53:37,15.08852011,0.000173,53.2167,229.4987,88.9139,271.2052,0.00016746,2.379e-05,0.0,0 STARLINK-3781,1 52272U 22041M   23335.95391086  .00002379  00000-0  16746-3 0  9992,2 52272  53.2167 229.4987 0001730  88.9139 271.2052 15.08852011 89258,6917.844,95.437,540.905,538.512,0.0
52272.0,STARLINK-3781,PAYLOAD,2023-12-02 00:29:00,15.08863039,0.0001516,53.216,229.202,64.7056,295.4093,0.00038374,5.828e-05,0.0,0 STARLINK-3781,1 52272U 22041M   23336.02014571  .00005828  00000-0  38374-3 0  9995,2 52272  53.2160 229.2020 0001516  64.7056 295.4093 15.08863039 90492,6917.81,95.436,540.724,538.626,0.0
52272.0,STARLINK-3781,PAYLOAD,2023-12-02 03:39:46,15.08873601,0.0001359,53.216,228.6032,84.5994,275.5153,0.00051721,7.961e-05,0.0,0 STARLINK-3781,1 52272U 22041M   23336.15261781  .00007961  00000-0  51721-3 0  9997,2 52272  53.2160 228.6032 0001359  84.5994 275.5153 15.08873601 90519,6917.778,95.435,540.583,538.703,0.0
52272.0,STARLINK-3781,PAYLOAD,2023-12-02 22:44:25,15.08838584,0.0001592,53.216,225.0372,139.8499,220.2611,-6.7582e-05,-1.363e-05,0.0,0 STARLINK-3781,1 52272U 22041M   23336.94751333 -.00001363  00000-0 -67582-4 0  9996,2 52272  53.2160 225.0372 0001592 139.8499 220.2611 15.08838584 89403,6917.885,95.438,540.851,538.648,0.0
52272.0,STARLINK-3781,PAYLOAD,2023-12-03 01:55:11,15.08835129,0.0001235,53.2165,224.4405,107.8087,252.304,-8.5397e-05,-1.646e-05,0.0,0 STARLINK-3781,1 52272U 22041M   23337.07999707 -.00001646  00000-0 -85397-4 0  9998,2 52272  53.2165 224.4405 0001235 107.8087 252.3040 15.08835129 90653,6917.895,95.438,540.615,538.906,0.0
52272.0,STARLINK-3781,PAYLOAD,2023-12-03 22:35:13,15.08834113,0.0001318,53.2153,220.5793,80.5874,279.5267,-0.00022192,-3.817e-05,0.0,0 STARLINK-3781,1 52272U 22041M   23337.94112361 -.00003817  00000-0 -22192-3 0  9992,2 52272  53.2153 220.5793 0001318  80.5874 279.5267 15.08834113 89551,6917.898,95.438,540.675,538.852,0.0
52272.0,STARLINK-3781,PAYLOAD,2023-12-04 16:04:27,15.08837654,0.0001283,53.2159,217.3062,120.1857,239.9262,0.00033236,5.005e-05,0.0,0 STARLINK-3781,1 52272U 22041M   23338.66976530  .00005005  00000-0  33236-3 0  9998,2 52272  53.2159 217.3062 0001283 120.1857 239.9262 15.08837654 90890,6917.888,95.438,540.64,538.865,0.0
52272.0,STARLINK-3781,PAYLOAD,2023-12-05 15:55:14,15.08838158,0.0001372,53.2164,212.8446,115.2233,244.8901,0.00054752,8.436e-05,0.0,0 STARLINK-3781,1 52272U 22041M   23339.66336533  .00008436  00000-0  54752-3 0  9999,2 52272  53.2164 212.8446 0001372 115.2233 244.8901 15.08838158 89819,6917.886,95.438,540.7,538.802,0.0
52272.0,STARLINK-3781,PAYLOAD,2023-12-06 01:27:33,15.08845407,0.0001386,53.217,211.0605,122.4502,237.6624,0.00014929,2.089e-05,0.0,0 STARLINK-3781,1 52272U 22041M   23340.06079895  .00002089  00000-0  14929-3 0  9990,2 52272  53.2170 211.0605 0001386 122.4502 237.6624 15.08845407 91100,6917.864,95.437,540.688,538.77,0.0
52272.0,STARLINK-3781,PAYLOAD,2023-12-06 22:07:33,15.08840221,0.0001191,53.2163,207.1962,104.8028,255.3096,2.7855e-05,1.56e-06,0.0,0 STARLINK-3781,1 52272U 22041M   23340.92191954  .00000156  00000-0  27855-4 0  9992,2 52272  53.2163 207.1962 0001191 104.8028 255.3096 15.08840221 90002,6917.88,95.438,540.569,538.921,0.0
52272.0,STARLINK-3781,PAYLOAD,2023-12-07 01:18:20,15.08842376,0.0001389,53.215,206.6004,108.3389,251.7755,-2.8921e-05,-7.48e-06,0.0,0 STARLINK-3781,1 52272U 22041M   23341.05439885 -.00000748  00000-0 -28921-4 0  9999,2 52272  53.2150 206.6004 0001389 108.3389 251.7755 15.08842376 91250,6917.873,95.437,540.699,538.777,0.0
52272.0,STARLINK-3781,PAYLOAD,2023-12-08 01:09:07,15.08838928,0.0001495,53.2159,202.1396,99.0723,261.0438,3.3798e-05,2.5e-06,0.0,0 STARLINK-3781,1 52272U 22041M   23342.04800177  .00000250  00000-0  33798-4 0  9999,2 52272  53.2159 202.1396 0001495  99.0723 261.0438 15.08838928 90170,6917.884,95.438,540.783,538.714,0.0
52272.0,STARLINK-3781,PAYLOAD,2023-12-09 23:15:18,15.08840712,0.0001308,53.2156,193.5162,106.4152,253.6984,8.525e-06,-1.52e-06,0.0,0 STARLINK-3781,1 52272U 22041M   23343.96896062 -.00000152  00000-0  85250-5 0  9992,2 52272  53.2156 193.5162 0001308 106.4152 253.6984 15.08840712 91698,6917.878,95.438,540.648,538.838,0.0
52272.0,STARLINK-3781,PAYLOAD,2023-12-10 13:33:46,15.08840046,0.0001294,53.2157,190.84,107.1731,252.9402,1.3878e-05,-6.7e-07,0.0,0 STARLINK-3781,1 52272U 22041M   23344.56512192 -.00000067  00000-0  13878-4 0  9999,2 52272  53.2157 190.8400 0001294 107.1731 252.9402 15.08840046 90550,6917.88,95.438,540.64,538.85,0.0
52272.0,STARLINK-3781,PAYLOAD,2023-12-10 21:30:42,15.08840073,0.0001463,53.2162,189.3554,80.9418,279.174,6.3021e-05,7.15e-06,0.0,0 STARLINK-3781,1 52272U 22041M   23344.89632381  .00000715  00000-0  63021-4 0  9992,2 52272  53.2162 189.3554 0001463  80.9418 279.1740 15.08840073 90609,6917.88,95.438,540.757,538.733,0.0
52272.0,STARLINK-3781,PAYLOAD,2023-12-11 19:46:06,15.08840977,0.000152,53.2162,185.1927,79.0151,281.1012,4.201e-05,3.81e-06,0.0,0 STARLINK-3781,1 52272U 22041M   23345.82368483  .00000381  00000-0  42010-4 0  9999,2 52272  53.2162 185.1927 0001520  79.0151 281.1012 15.08840977 91973,6917.877,95.437,540.794,538.691,0.0
52272.0,STARLINK-3781,PAYLOAD,2023-12-12 19:36:53,15.088431,0.0001448,53.216,180.7318,84.5305,275.5852,4.9543e-05,5.01e-06,0.0,0 STARLINK-3781,1 52272U 22041M   23346.81728143  .00000501  00000-0  49543-4 0  9994,2 52272  53.2160 180.7318 0001448  84.5305 275.5852 15.08843100 90897,6917.871,95.437,540.738,538.734,0.0
52272.0,STARLINK-3781,PAYLOAD,2023-12-13 19:27:40,15.08842537,0.0001445,53.2165,176.2679,87.2899,272.8258,2.8544e-05,1.66e-06,0.0,0 STARLINK-3781,1 52272U 22041M   23347.81088038  .00000166  00000-0  28544-4 0  9992,2 52272  53.2165 176.2679 0001445  87.2899 272.8258 15.08842537 92274,6917.873,95.437,540.737,538.738,0.0
52272.0,STARLINK-3781,PAYLOAD,2023-12-14 19:18:27,15.08836489,0.0001461,53.2164,171.8067,88.0373,272.0786,-1.1167e-05,-4.66e-06,0.0,0 STARLINK-3781,1 52272U 22041M   23348.80448598 -.00000466  00000-0 -11167-4 0  9991,2 52272  53.2164 171.8067 0001461  88.0373 272.0786 15.08836489 92423,6917.891,95.438,540.767,538.745,0.0
52272.0,STARLINK-3781,PAYLOAD,2023-12-15 19:09:14,15.08833808,0.0001427,53.216,167.3472,95.5031,264.6124,3.9841e-06,-2.25e-06,0.0,0 STARLINK-3781,1 52272U 22041M   23349.79808974 -.00000225  00000-0  39841-5 0  9990,2 52272  53.2160 167.3472 0001427  95.5031 264.6124 15.08833808 91340,6917.899,95.438,540.751,538.777,0.0
52272.0,STARLINK-3781,PAYLOAD,2023-12-16 19:00:01,15.08838371,0.0001388,53.2162,162.887,91.9533,268.1618,8.2413e-05,1.024e-05,0.0,0 STARLINK-3781,1 52272U 22041M   23350.79168808  .00001024  00000-0  82413-4 0  9996,2 52272  53.2162 162.8870 0001388  91.9533 268.1618 15.08838371 92727,6917.885,95.438,540.711,538.79,0.0
52272.0,STARLINK-3781,PAYLOAD,2023-12-17 18:50:48,15.08842322,0.0001386,53.2163,158.4274,85.7009,274.4141,9.9885e-05,1.302e-05,0.0,0 STARLINK-3781,1 52272U 22041M   23351.78528735  .00001302  00000-0  99885-4 0  9995,2 52272  53.2163 158.4274 0001386  85.7009 274.4141 15.08842322 91646,6917.873,95.437,540.697,538.779,0.0
52272.0,STARLINK-3781,PAYLOAD,2023-12-18 18:41:35,15.08844911,0.0001601,53.2168,153.967,73.4737,286.6431,7.4233e-05,8.94e-06,0.0,0 STARLINK-3781,1 52272U 22041M   23352.77888630  .00000894  00000-0  74233-4 0  9993,2 52272  53.2168 153.9670 0001601  73.4737 286.6431 15.08844911 93020,6917.865,95.437,540.838,538.623,0.0
52272.0,STARLINK-3781,PAYLOAD,2023-12-19 16:56:59,15.08843358,0.0001455,53.2162,149.8073,83.3718,276.7439,1.9964e-05,3e-07,0.0,0 STARLINK-3781,1 52272U 22041M   23353.70624678  .00000030  00000-0  19964-4 0  9999,2 52272  53.2162 149.8073 0001455  83.3718 276.7439 15.08843358 93168,6917.87,95.437,540.742,538.729,0.0
52272.0,STARLINK-3781,PAYLOAD,2023-12-20 13:37:00,15.08837575,0.0001402,53.216,145.9412,86.0083,274.107,-1.1127e-05,-4.65e-06,0.0,0 STARLINK-3781,1 52272U 22041M   23354.56737115 -.00000465  00000-0 -11127-4 0  9992,2 52272  53.2160 145.9412 0001402  86.0083 274.1070 15.08837575 92062,6917.888,95.438,540.723,538.783,0.0
